ALOS-2                  
1 39766U 14029A   26164.28409789  .00000932  00000+0  13171-3 0  9992
2 39766  97.9215 261.5033 0001609  90.6293 269.5103 14.79474635651009
KAZEOSAT 2              
1 40010U 14033A   26164.25577448  .00001040  00000+0  12637-3 0  9993
2 40010  97.5412   4.0761 0008226 343.5770  16.5178 14.85467404648379
HODOYOSHI-4             
1 40011U 14033B   26164.26862271  .00001455  00000+0  16307-3 0  9994
2 40011  97.5452 349.2805 0022745 322.0140  37.9473 14.88119846648228
DEIMOS-2                
1 40013U 14033D   26164.29781413  .00000648  00000+0  66405-4 0  9995
2 40013  97.5845  38.9238 0001817  50.4462 309.6918 14.93715081637145
HODOYOSHI-3             
1 40015U 14033F   26164.00845756  .00000970  00000+0  11771-3 0  9990
2 40015  97.6413 327.2173 0033085  11.0804 349.1133 14.85380752647004
SPOT 7                  
1 40053U 14034A   26164.27769978  .00000256  00000+0  61542-4 0  9992
2 40053  98.0635 226.8700 0001202  90.0015 270.1323 14.60954691636569
SKYSAT-B                
1 40072U 14037D   26164.22498628  .00001249  00000+0  14274-3 0  9994
2 40072  98.3838 122.9641 0004326 298.9459  61.1321 14.88018464645373
WORLDVIEW-3 (WV-3)      
1 40115U 14048A   26164.25929829  .00000787  00000+0  98456-4 0  9990
2 40115  97.8566 239.1463 0001291  31.1443 328.9848 14.85015999641320
GAOFEN-2                
1 40118U 14049A   26164.32498903  .00000069  00000+0  15854-4 0  9990
2 40118  98.0115 228.5356 0005999 242.1372 117.9232 14.80892489638661
YAOGAN-21               
1 40143U 14053A   26164.29467535  .00008624  00000+0  33431-3 0  9991
2 40143  97.1483 204.6976 0010022 104.9093 255.3257 15.26321739654363
YAOGAN-22               
1 40275U 14063A   26164.30708446 -.00000033  00000+0  36509-4 0  9996
2 40275 100.7718 315.5159 0006251 194.0224 166.0714 13.15530941559308
ASNARO                  
1 40298U 14070A   26164.27371429  .00008102  00000+0  38584-3 0  9990
2 40298  97.3461 240.4936 0005307 177.6212 182.5049 15.19381070643416
YAOGAN-24               
1 40310U 14072A   26164.28633848  .00000808  00000+0  12429-3 0  9999
2 40310  98.1476 301.5913 0012544 277.4588  82.5196 14.76218832623143
CBERS 4                 
1 40336U 14079A   26164.27330610  .00000079  00000+0  42283-4 0  9996
2 40336  98.3539 221.2276 0001940  67.0003 293.1387 14.35507891603394
YAOGAN-26               
1 40362U 14088A   26164.25323271  .00031181  00000+0  61292-3 0  9996
2 40362  97.0640 164.5542 0006269  75.3759 284.8187 15.47209999637097
SMAP                    
1 40376U 15003A   26164.25081329  .00000405  00000+0  87376-4 0  9991
2 40376  98.1276 171.4011 0001294  94.5198 265.6152 14.63363448607048
KOMPSAT-3A              
1 40536U 15014A   26164.24928797  .00023890  00000+0  34830-3 0  9998
2 40536  97.6879 155.3236 0056194 188.7941 171.2333 15.53819402621203
SENTINEL-2A             
1 40697U 15028A   26164.29859936 -.00000108  00000+0 -24471-4 0  9994
2 40697  98.5687 239.2053 0001108  90.4477 269.6833 14.30813794573176
GAOFEN-8                
1 40701U 15030A   26164.26870156  .00017362  00000+0  35942-3 0  9999
2 40701  97.6904 357.4046 0008456 200.3478 159.7435 15.45812202610848
CARBONITE 1 (CBNT-1)    
1 40718U 15032D   26164.27065265  .00001659  00000+0  20723-3 0  9990
2 40718  97.6505 342.5015 0013333 312.2621  47.7462 14.83576965588762
YAOGAN-27               
1 40878U 15040A   26164.30353810  .00000328  00000+0  97644-3 0  9994
2 40878 100.1147 150.8545 0007546 220.1961 139.8595 13.16071684517150
GAOFEN-9 01             
1 40894U 15047A   26164.28381229  .00000942  00000+0  12169-3 0  9992
2 40894  97.6276 200.1559 0028117 150.2053 210.0770 14.82876876579613
YAOGAN-28               
1 41026U 15064A   26164.32645786  .00007416  00000+0  27897-3 0  9992
2 41026  97.3064 302.6668 0010260 196.9908 163.0990 15.27376376590094
YAOGAN-29               
1 41038U 15069A   26164.33212736  .00000302  00000+0  43738-4 0  9996
2 41038  98.0034 192.9589 0002815  60.3830 299.7663 14.83082683570053
KENT RIDGE 1            
1 41167U 15077B   26163.71037587  .00004314  00000+0  14593-3 0  9991
2 41167  14.9784 299.2877 0008257 175.1871 184.8531 15.23106692580413
GAOFEN-4                
1 41194U 15083A   26164.09558576 -.00000322  00000+0  00000+0 0  9996
2 41194   0.3453  83.8712 0004336 113.2557 204.4145  1.00270961 38484
JASON-3                 
1 41240U 16002A   26164.27447783 -.00000052  00000+0  39709-4 0  9990
2 41240  66.0399 134.0610 0008550 272.9506  87.0534 12.87628003486743
SENTINEL-3A             
1 41335U 16011A   26164.28928810  .00000091  00000+0  55469-4 0  9994
2 41335  98.6249 231.7288 0001378 103.1220 257.0114 14.26738944537503
ZIYUAN 3-02 (ZY 3-02)   
1 41556U 16033A   26164.30937154  .00005278  00000+0  23767-3 0  9994
2 41556  97.3842 240.1578 0011312 305.3419  54.6758 15.21445714557394
CARTOSAT-2C             
1 41599U 16040A   26164.30626774  .00006150  00000+0  29424-3 0  9998
2 41599  97.4491 224.3374 0010242 143.8382 216.3547 15.19291520553126
