OBJECT_NAME,OBJECT_ID,EPOCH,MEAN_MOTION,ECCENTRICITY,INCLINATION,RA_OF_ASC_NODE,ARG_OF_PERICENTER,MEAN_ANOMALY,EPHEMERIS_TYPE,CLASSIFICATION_TYPE,NORAD_CAT_ID,ELEMENT_SET_NO,REV_AT_EPOCH,BSTAR,MEAN_MOTION_DOT,MEAN_MOTION_DDOT
ALOS-2,2014-029A,2026-06-13T06:49:06.057696,14.79474635,.0001609,97.9215,261.5033,90.6293,269.5103,0,U,39766,999,65100,.13171263E-3,.932E-5,0
KAZEOSAT 2,2014-033A,2026-06-13T06:08:18.915072,14.85467404,.00082265,97.5412,4.0761,343.5770,16.5178,0,U,40010,999,64837,.12636501E-3,.104E-4,0
HODOYOSHI-4,2014-033B,2026-06-13T06:26:49.002144,14.88119846,.00227454,97.5452,349.2805,322.0140,37.9473,0,U,40011,999,64822,.16306602E-3,.1455E-4,0
DEIMOS-2,2014-033D,2026-06-13T07:08:51.140832,14.93715081,.00018172,97.5845,38.9238,50.4462,309.6918,0,U,40013,999,63714,.66405392E-4,.648E-5,0
HODOYOSHI-3,2014-033F,2026-06-13T00:12:10.733184,14.85380752,.00330851,97.6413,327.2173,11.0804,349.1133,0,U,40015,999,64700,.11770668E-3,.97E-5,0
SPOT 7,2014-034A,2026-06-13T06:39:53.260992,14.60954691,.00012024,98.0635,226.8700,90.0015,270.1323,0,U,40053,999,63656,.61542059E-4,.256E-5,0
SKYSAT-B,2014-037D,2026-06-13T05:23:58.814592,14.88018464,.00043269,98.3838,122.9641,298.9459,61.1321,0,U,40072,999,64537,.14273555E-3,.1249E-4,0
WORLDVIEW-3 (WV-3),2014-048A,2026-06-13T06:13:23.372256,14.85015999,.00012915,97.8566,239.1463,31.1443,328.9848,0,U,40115,999,64132,.98456318E-4,.787E-5,0
GAOFEN-2,2014-049A,2026-06-13T07:47:59.052192,14.80892489,.00059994,98.0115,228.5356,242.1372,117.9232,0,U,40118,999,63866,.15853858E-4,.69E-6,0
YAOGAN-21,2014-053A,2026-06-13T07:04:19.950240,15.26321739,.00100224,97.1483,204.6976,104.9093,255.3257,0,U,40143,999,65436,.33430697E-3,.8624E-4,0
YAOGAN-22,2014-063A,2026-06-13T07:22:12.097344,13.15530941,.00062515,100.7718,315.5159,194.0224,166.0714,0,U,40275,999,55930,.36509302E-4,-.33E-6,0
ASNARO,2014-070A,2026-06-13T06:34:08.914656,15.19381070,.00053078,97.3461,240.4936,177.6212,182.5049,0,U,40298,999,64341,.38584083E-3,.8102E-4,0
YAOGAN-24,2014-072A,2026-06-13T06:52:19.644672,14.76218832,.0012544,98.1476,301.5913,277.4588,82.5196,0,U,40310,999,62314,.12428504E-3,.808E-5,0
CBERS 4,2014-079A,2026-06-13T06:33:33.647040,14.35507891,.00019407,98.3539,221.2276,67.0003,293.1387,0,U,40336,999,60339,.42283445E-4,.79E-6,0
YAOGAN-26,2014-088A,2026-06-13T06:04:39.306144,15.47209999,.00062693,97.0640,164.5542,75.3759,284.8187,0,U,40362,999,63709,.61291711E-3,.31181E-3,0
SMAP,2015-003A,2026-06-13T06:01:10.268256,14.63363448,.00012948,98.1276,171.4011,94.5198,265.6152,0,U,40376,999,60704,.87376243E-4,.405E-5,0
KOMPSAT-3A,2015-014A,2026-06-13T05:58:58.480608,15.53819402,.00561943,97.6879,155.3236,188.7941,171.2333,0,U,40536,999,62120,.34829621E-3,.2389E-3,0
SENTINEL-2A,2015-028A,2026-06-13T07:09:58.984704,14.30813794,.00011089,98.5687,239.2053,90.4477,269.6833,0,U,40697,999,57317,-.24471001E-4,-.108E-5,0
GAOFEN-8,2015-030A,2026-06-13T06:26:55.814784,15.45812202,.00084561,97.6904,357.4046,200.3478,159.7435,0,U,40701,999,61084,.35942401E-3,.17362E-3,0
CARBONITE 1 (CBNT-1),2015-032D,2026-06-13T06:29:44.388960,14.83576965,.00133335,97.6505,342.5015,312.2621,47.7462,0,U,40718,999,58876,.2072254E-3,.1659E-4,0
YAOGAN-27,2015-040A,2026-06-13T07:17:05.691840,13.16071684,.0007546,100.1147,150.8545,220.1961,139.8595,0,U,40878,999,51715,.97643698E-3,.328E-5,0
GAOFEN-9 01,2015-047A,2026-06-13T06:48:41.381856,14.82876876,.00281178,97.6276,200.1559,150.2053,210.0770,0,U,40894,999,57961,.1216872E-3,.942E-5,0
YAOGAN-28,2015-064A,2026-06-13T07:50:05.959104,15.27376376,.00102608,97.3064,302.6668,196.9908,163.0990,0,U,41026,999,59009,.27896979E-3,.7416E-4,0
YAOGAN-29,2015-069A,2026-06-13T07:58:15.803904,14.83082683,.00028158,98.0034,192.9589,60.3830,299.7663,0,U,41038,999,57005,.43738143E-4,.302E-5,0
KENT RIDGE 1,2015-077B,2026-06-12T17:02:56.475168,15.23106692,.00082578,14.9784,299.2877,175.1871,184.8531,0,U,41167,999,58041,.14593097E-3,.4314E-4,0
GAOFEN-4,2015-083A,2026-06-13T02:17:38.609664,1.00270961,.00043365,0.3453,83.8712,113.2557,204.4145,0,U,41194,999,3848,0,-.322E-5,0
JASON-3,2016-002A,2026-06-13T06:35:14.884512,12.87628003,.00085501,66.0399,134.0610,272.9506,87.0534,0,U,41240,999,48674,.39709403E-4,-.52E-6,0
SENTINEL-3A,2016-011A,2026-06-13T06:56:34.491840,14.26738944,.00013782,98.6249,231.7288,103.1220,257.0114,0,U,41335,999,53750,.55469126E-4,.91E-6,0
ZIYUAN 3-02 (ZY 3-02),2016-033A,2026-06-13T07:25:29.701056,15.21445714,.00113122,97.3842,240.1578,305.3419,54.6758,0,U,41556,999,55739,.23766776E-3,.5278E-4,0
CARTOSAT-2C,2016-040A,2026-06-13T07:21:01.532736,15.19291520,.0010242,97.4491,224.3374,143.8382,216.3547,0,U,41599,999,55312,.29424412E-3,.615E-4,0
